start=new Date('2022-11-07T00:00:00.000Z').valueOf();
sats=[{"TLE_LINE1":"1 53085U 22077AU  22310.50983215 -.00002611  00000-0 -19870-3 0  9990","FILE":"3647066","REF_FRAME":"TEME","OBJECT_NAME":"STARLINK-4324","MEAN_ANOMALY":"335.1252","COUNTRY_CODE":"US","MEAN_MOTION":"15.01263180","GP_ID":"217059567","SEMIMAJOR_AXIS":"6941.137","MEAN_MOTION_DDOT":"0.0000000000000","BSTAR":"-0.00019870000000","REV_AT_EPOCH":"1800","OBJECT_ID":"2022-077AU","CENTER_NAME":"EARTH","SITE":"AFWTR","INCLINATION":"97.6558","EPHEMERIS_TYPE":"0","MEAN_MOTION_DOT":"-0.00002611","DECAY_DATE":null,"MEAN_ELEMENT_THEORY":"SGP4","CLASSIFICATION_TYPE":"U","ARG_OF_PERICENTER":"25.0114","PERIAPSIS":"560.961","ECCENTRICITY":"0.00029410","NORAD_CAT_ID":"53085","ELEMENT_SET_NO":"999","OBJECT_TYPE":"PAYLOAD","EPOCH":"2022-11-06T12:14:09.497760","PERIOD":"95.919","RCS_SIZE":"LARGE","TIME_SYSTEM":"UTC","APOAPSIS":"565.043","TLE_LINE2":"2 53085  97.6558 129.7907 0002941  25.0114 335.1252 15.01263180 18004","RA_OF_ASC_NODE":"129.7907","LAUNCH_DATE":"2022-07-11"},{"DECAY_DATE":null,"MEAN_MOTION_DOT":"-0.00000305","EPHEMERIS_TYPE":"0","INCLINATION":"97.6559","SITE":"AFWTR","PERIAPSIS":"560.833","ARG_OF_PERICENTER":"23.2790","CLASSIFICATION_TYPE":"U","MEAN_ELEMENT_THEORY":"SGP4","RCS_SIZE":"LARGE","PERIOD":"95.919","EPOCH":"2022-11-06T12:16:49.674720","OBJECT_TYPE":"PAYLOAD","ECCENTRICITY":"0.00031410","NORAD_CAT_ID":"53086","ELEMENT_SET_NO":"999","LAUNCH_DATE":"2022-07-11","RA_OF_ASC_NODE":"129.7922","TLE_LINE2":"2 53086  97.6559 129.7922 0003141  23.2790 336.8576 15.01259688 18001","APOAPSIS":"565.193","TIME_SYSTEM":"UTC","OBJECT_NAME":"STARLINK-4318","FILE":"3647066","TLE_LINE1":"1 53086U 22077AV  22310.51168605 -.00000305  00000-0 -19123-4 0  9990","REF_FRAME":"TEME","COUNTRY_CODE":"US","MEAN_ANOMALY":"336.8576","GP_ID":"217059220","MEAN_MOTION":"15.01259688","CENTER_NAME":"EARTH","OBJECT_ID":"2022-077AV","REV_AT_EPOCH":"1800","BSTAR":"-0.00001912300000","MEAN_MOTION_DDOT":"0.0000000000000","SEMIMAJOR_AXIS":"6941.148"},{"MEAN_MOTION":"15.01251695","GP_ID":"217059393","CENTER_NAME":"EARTH","BSTAR":"-0.00006314500000","REV_AT_EPOCH":"1800","OBJECT_ID":"2022-077AW","MEAN_MOTION_DDOT":"0.0000000000000","SEMIMAJOR_AXIS":"6941.172","OBJECT_NAME":"STARLINK-4329","REF_FRAME":"TEME","TLE_LINE1":"1 53087U 22077AW  22310.50637515 -.00000870  00000-0 -63145-4 0  9991","FILE":"3647066","COUNTRY_CODE":"US","MEAN_ANOMALY":"339.9430","RCS_SIZE":"LARGE","PERIOD":"95.920","EPOCH":"2022-11-06T12:09:10.812960","OBJECT_TYPE":"PAYLOAD","ELEMENT_SET_NO":"999","NORAD_CAT_ID":"53087","ECCENTRICITY":"0.00034090","LAUNCH_DATE":"2022-07-11","TLE_LINE2":"2 53087  97.6535 129.7870 0003409  20.1928 339.9430 15.01251695 18007","RA_OF_ASC_NODE":"129.7870","APOAPSIS":"565.404","TIME_SYSTEM":"UTC","DECAY_DATE":null,"MEAN_MOTION_DOT":"-0.00000870","INCLINATION":"97.6535","EPHEMERIS_TYPE":"0","SITE":"AFWTR","PERIAPSIS":"560.671","CLASSIFICATION_TYPE":"U","ARG_OF_PERICENTER":"20.1928","MEAN_ELEMENT_THEORY":"SGP4"},{"INCLINATION":"97.6550","EPHEMERIS_TYPE":"0","SITE":"AFWTR","DECAY_DATE":null,"MEAN_MOTION_DOT":"0.00000374","MEAN_ELEMENT_THEORY":"SGP4","PERIAPSIS":"560.833","CLASSIFICATION_TYPE":"U","ARG_OF_PERICENTER":"25.9847","OBJECT_TYPE":"PAYLOAD","NORAD_CAT_ID":"53088","ECCENTRICITY":"0.00030910","ELEMENT_SET_NO":"999","RCS_SIZE":"LARGE","PERIOD":"95.919","EPOCH":"2022-11-06T12:11:28.730688","APOAPSIS":"565.124","TIME_SYSTEM":"UTC","LAUNCH_DATE":"2022-07-11","TLE_LINE2":"2 53088  97.6550 129.7878 0003091  25.9847 334.1532 15.01270850 18007","RA_OF_ASC_NODE":"129.7878","FILE":"3647066","TLE_LINE1":"1 53088U 22077AX  22310.50797142  .00000374  00000-0  33726-4 0  9994","REF_FRAME":"TEME","OBJECT_NAME":"STARLINK-4333","MEAN_ANOMALY":"334.1532","COUNTRY_CODE":"US","MEAN_MOTION":"15.01270850","GP_ID":"217058630","MEAN_MOTION_DDOT":"0.0000000000000","SEMIMAJOR_AXIS":"6941.113","CENTER_NAME":"EARTH","BSTAR":"0.00003372600000","REV_AT_EPOCH":"1800","OBJECT_ID":"2022-077AX"},{"MEAN_ELEMENT_THEORY":"SGP4","PERIAPSIS":"538.311","ARG_OF_PERICENTER":"40.5903","CLASSIFICATION_TYPE":"U","EPHEMERIS_TYPE":"0","INCLINATION":"53.2176","SITE":"AFETR","DECAY_DATE":null,"MEAN_MOTION_DOT":"0.00001532","APOAPSIS":"541.262","TIME_SYSTEM":"UTC","LAUNCH_DATE":"2022-07-17","RA_OF_ASC_NODE":"247.2008","TLE_LINE2":"2 53132  53.2176 247.2008 0002133  40.5903 319.5247 15.08826644 17163","OBJECT_TYPE":"PAYLOAD","ELEMENT_SET_NO":"999","ECCENTRICITY":"0.00021330","NORAD_CAT_ID":"53132","RCS_SIZE":"LARGE","PERIOD":"95.438","EPOCH":"2022-11-06T12:27:02.179872","MEAN_ANOMALY":"319.5247","COUNTRY_CODE":"US","REF_FRAME":"TEME","TLE_LINE1":"1 53132U 22083A   22310.51877523  .00001532  00000-0  11437-3 0  9995","FILE":"3647066","OBJECT_NAME":"STARLINK-4063","MEAN_MOTION_DDOT":"0.0000000000000","SEMIMAJOR_AXIS":"6917.921","CENTER_NAME":"EARTH","OBJECT_ID":"2022-083A","BSTAR":"0.00011437000000","REV_AT_EPOCH":"1716","GP_ID":"217058633","MEAN_MOTION":"15.08826644"},{"MEAN_ANOMALY":"324.6174","COUNTRY_CODE":"US","TLE_LINE1":"1 53133U 22083B   22310.80214203  .00000210  00000-0  31295-4 0  9995","FILE":"3647141","REF_FRAME":"TEME","OBJECT_NAME":"STARLINK-4154","SEMIMAJOR_AXIS":"6917.921","MEAN_MOTION_DDOT":"0.0000000000000","CENTER_NAME":"EARTH","REV_AT_EPOCH":"1783","BSTAR":"0.00003129500000","OBJECT_ID":"2022-083B","MEAN_MOTION":"15.08826565","GP_ID":"217061178","MEAN_ELEMENT_THEORY":"SGP4","PERIAPSIS":"538.593","CLASSIFICATION_TYPE":"U","ARG_OF_PERICENTER":"35.4932","INCLINATION":"53.2152","EPHEMERIS_TYPE":"0","SITE":"AFETR","DECAY_DATE":null,"MEAN_MOTION_DOT":"0.00000210","APOAPSIS":"540.980","TIME_SYSTEM":"UTC","LAUNCH_DATE":"2022-07-17","TLE_LINE2":"2 53133  53.2152 245.9286 0001725  35.4932 324.6174 15.08826565 17834","RA_OF_ASC_NODE":"245.9286","OBJECT_TYPE":"PAYLOAD","ECCENTRICITY":"0.00017250","NORAD_CAT_ID":"53133","ELEMENT_SET_NO":"999","RCS_SIZE":"LARGE","PERIOD":"95.438","EPOCH":"2022-11-06T19:15:05.071392"},{"GP_ID":"217058806","MEAN_MOTION":"15.08822665","SEMIMAJOR_AXIS":"6917.933","MEAN_MOTION_DDOT":"0.0000000000000","CENTER_NAME":"EARTH","OBJECT_ID":"2022-083C","REV_AT_EPOCH":"1710","BSTAR":"0.00002817600000","TLE_LINE1":"1 53134U 22083C   22310.12869814  .00000160  00000-0  28176-4 0  9993","FILE":"3647066","REF_FRAME":"TEME","OBJECT_NAME":"STARLINK-4150","MEAN_ANOMALY":"325.8106","COUNTRY_CODE":"US","OBJECT_TYPE":"PAYLOAD","ECCENTRICITY":"0.00026230","NORAD_CAT_ID":"53134","ELEMENT_SET_NO":"999","RCS_SIZE":"LARGE","PERIOD":"95.439","EPOCH":"2022-11-06T03:05:19.519296","APOAPSIS":"541.613","TIME_SYSTEM":"UTC","LAUNCH_DATE":"2022-07-17","RA_OF_ASC_NODE":"248.9381","TLE_LINE2":"2 53134  53.2160 248.9381 0002623  34.3055 325.8106 15.08822665 17100","EPHEMERIS_TYPE":"0","INCLINATION":"53.2160","SITE":"AFETR","DECAY_DATE":null,"MEAN_MOTION_DOT":"0.00000160","MEAN_ELEMENT_THEORY":"SGP4","PERIAPSIS":"537.984","ARG_OF_PERICENTER":"34.3055","CLASSIFICATION_TYPE":"U"},{"MEAN_MOTION_DOT":"-0.00003356","DECAY_DATE":null,"SITE":"AFETR","INCLINATION":"53.2179","EPHEMERIS_TYPE":"0","CLASSIFICATION_TYPE":"U","ARG_OF_PERICENTER":"28.9248","PERIAPSIS":"538.181","MEAN_ELEMENT_THEORY":"SGP4","EPOCH":"2022-11-06T03:15:56.406528","PERIOD":"95.439","RCS_SIZE":"LARGE","NORAD_CAT_ID":"53135","ECCENTRICITY":"0.00023450","ELEMENT_SET_NO":"999","OBJECT_TYPE":"PAYLOAD","TLE_LINE2":"2 53135  53.2179 248.9193 0002345  28.9248 331.1873 15.08820931 17730","RA_OF_ASC_NODE":"248.9193","LAUNCH_DATE":"2022-07-17","TIME_SYSTEM":"UTC","APOAPSIS":"541.426","OBJECT_NAME":"STARLINK-4023","REF_FRAME":"TEME","TLE_LINE1":"1 53135U 22083D   22310.13606952 -.00003356  00000-0 -19291-3 0  9996","FILE":"3647145","COUNTRY_CODE":"US","MEAN_ANOMALY":"331.1873","MEAN_MOTION":"15.08820931","GP_ID":"217061911","REV_AT_EPOCH":"1773","BSTAR":"-0.00019291000000","OBJECT_ID":"2022-083D","CENTER_NAME":"EARTH","MEAN_MOTION_DDOT":"0.0000000000000","SEMIMAJOR_AXIS":"6917.939"},{"OBJECT_TYPE":"PAYLOAD","ECCENTRICITY":"0.00022120","NORAD_CAT_ID":"53136","ELEMENT_SET_NO":"999","RCS_SIZE":"LARGE","PERIOD":"95.438","EPOCH":"2022-11-06T19:04:29.249472","APOAPSIS":"541.307","TIME_SYSTEM":"UTC","LAUNCH_DATE":"2022-07-17","RA_OF_ASC_NODE":"245.9599","TLE_LINE2":"2 53136  53.2187 245.9599 0002212  32.4869 327.6259 15.08829629 17831","EPHEMERIS_TYPE":"0","INCLINATION":"53.2187","SITE":"AFETR","DECAY_DATE":null,"MEAN_MOTION_DOT":"0.00000965","MEAN_ELEMENT_THEORY":"SGP4","PERIAPSIS":"538.247","ARG_OF_PERICENTER":"32.4869","CLASSIFICATION_TYPE":"U","GP_ID":"217061923","MEAN_MOTION":"15.08829629","MEAN_MOTION_DDOT":"0.0000000000000","SEMIMAJOR_AXIS":"6917.912","CENTER_NAME":"EARTH","OBJECT_ID":"2022-083E","REV_AT_EPOCH":"1783","BSTAR":"0.00007874900000","TLE_LINE1":"1 53136U 22083E   22310.79478298  .00000965  00000-0  78749-4 0  9994","FILE":"3647145","REF_FRAME":"TEME","OBJECT_NAME":"STARLINK-4152","MEAN_ANOMALY":"327.6259","COUNTRY_CODE":"US"},{"COUNTRY_CODE":"US","MEAN_ANOMALY":"325.0113","OBJECT_NAME":"STARLINK-4145","REF_FRAME":"TEME","TLE_LINE1":"1 53137U 22083F   22310.78742436  .00006823  00000-0  44642-3 0  9995","FILE":"3647145","CENTER_NAME":"EARTH","REV_AT_EPOCH":"1783","BSTAR":"0.00044642000000","OBJECT_ID":"2022-083F","SEMIMAJOR_AXIS":"6917.898","MEAN_MOTION_DDOT":"0.0000000000000","MEAN_MOTION":"15.08834192","GP_ID":"217061922","PERIAPSIS":"538.261","CLASSIFICATION_TYPE":"U","ARG_OF_PERICENTER":"35.1022","MEAN_ELEMENT_THEORY":"SGP4","DECAY_DATE":null,"MEAN_MOTION_DOT":"0.00006823","INCLINATION":"53.2174","EPHEMERIS_TYPE":"0","SITE":"AFETR","LAUNCH_DATE":"2022-07-17","TLE_LINE2":"2 53137  53.2174 245.9981 0002171  35.1022 325.0113 15.08834192 17830","RA_OF_ASC_NODE":"245.9981","APOAPSIS":"541.265","TIME_SYSTEM":"UTC","RCS_SIZE":"LARGE","EPOCH":"2022-11-06T18:53:53.464704","PERIOD":"95.438","OBJECT_TYPE":"PAYLOAD","NORAD_CAT_ID":"53137","ELEMENT_SET_NO":"999","ECCENTRICITY":"0.00021710"}];
